NORAD_CAT_ID,OBJECT_NAME,OBJECT_TYPE,EPOCH,MEAN_MOTION,ECCENTRICITY,INCLINATION,RA_OF_ASC_NODE,ARG_OF_PERICENTER,MEAN_ANOMALY,BSTAR,MEAN_MOTION_DOT,MEAN_MOTION_DDOT,TLE_LINE0,TLE_LINE1,TLE_LINE2,SEMIMAJOR_AXIS,PERIOD,APOGEE,PERIGEE,DECAYED
56814.0,STARLINK-6059,PAYLOAD,2024-03-25 19:51:13,14.98314657,0.000292,70.0002,344.2328,270.7409,89.3415,-0.00016345,-2.042e-05,0.0,0 STARLINK-6059,1 56814U 23078AZ  24085.82723877 -.00002042  00000-0 -16345-3 0  9999,2 56814  70.0002 344.2328 0002920 270.7409  89.3415 14.98314657 46012,6950.24,96.108,574.135,570.076,0.0
56814.0,STARLINK-6059,PAYLOAD,2024-03-25 21:27:21,14.98316294,0.0002768,70.0007,344.0651,267.0235,93.0607,-0.00014629,-1.837e-05,0.0,0 STARLINK-6059,1 56814U 23078AZ  24085.89399778 -.00001837  00000-0 -14629-3 0  9999,2 56814  70.0007 344.0651 0002768 267.0235  93.0607 14.98316294 45765,6950.235,96.108,574.024,570.176,0.0
56814.0,STARLINK-6059,PAYLOAD,2024-03-26 03:51:52,14.98328516,0.0003028,70.0002,343.3916,257.7561,102.3259,-6.1156e-06,-1.66e-06,0.0,0 STARLINK-6059,1 56814U 23078AZ  24086.16102645 -.00000166  00000-0 -61156-5 0  9998,2 56814  70.0002 343.3916 0003028 257.7561 102.3259 14.98328516 46065,6950.197,96.107,574.167,569.958,0.0
56814.0,STARLINK-6059,PAYLOAD,2024-03-26 10:16:25,14.98315513,0.0002695,70.0009,342.7172,275.0495,85.0357,0.00031529,3.67e-05,0.0,0 STARLINK-6059,1 56814U 23078AZ  24086.42807112  .00003670  00000-0  31529-3 0  9998,2 56814  70.0009 342.7172 0002695 275.0495  85.0357 14.98315513 45841,6950.238,96.108,573.976,570.23,0.0
56814.0,STARLINK-6059,PAYLOAD,2024-03-26 19:53:12,14.98347475,0.0002877,69.9998,341.7068,269.2345,90.8484,-0.00019675,-2.441e-05,0.0,0 STARLINK-6059,1 56814U 23078AZ  24086.82862231 -.00002441  00000-0 -19675-3 0  9990,2 56814  69.9998 341.7068 0002877 269.2345  90.8484 14.98347475 46162,6950.139,96.106,574.003,570.004,0.0
56814.0,STARLINK-6059,PAYLOAD,2024-03-26 23:05:28,14.9835218,0.0002694,70.0003,341.3719,260.807,99.2785,-0.00015209,-1.908e-05,0.0,0 STARLINK-6059,1 56814U 23078AZ  24086.96213628 -.00001908  00000-0 -15209-3 0  9991,2 56814  70.0003 341.3719 0002694 260.8070  99.2785 14.98352180 45929,6950.124,96.106,573.862,570.117,0.0
56814.0,STARLINK-6059,PAYLOAD,2024-03-27 02:17:44,14.98353477,0.0002547,70.0008,341.0357,258.3813,101.706,-9.5401e-05,-1.232e-05,0.0,0 STARLINK-6059,1 56814U 23078AZ  24087.09565243 -.00001232  00000-0 -95401-4 0  9992,2 56814  70.0008 341.0357 0002547 258.3813 101.7060 14.98353477 46200,6950.12,96.105,573.755,570.215,0.0
56814.0,STARLINK-6059,PAYLOAD,2024-03-27 10:18:25,14.98349579,0.0002379,70.0027,340.1928,283.8977,76.1917,-0.00026342,-3.236e-05,0.0,0 STARLINK-6059,1 56814U 23078AZ  24087.42945735 -.00003236  00000-0 -26342-3 0  9990,2 56814  70.0027 340.1928 0002379 283.8977  76.1917 14.98349579 46251,6950.132,96.106,573.651,570.344,0.0
56814.0,STARLINK-6059,PAYLOAD,2024-03-27 19:55:14,14.98316646,0.0002661,69.9995,339.1806,275.6587,84.4269,0.00013923,1.568e-05,0.0,0 STARLINK-6059,1 56814U 23078AZ  24087.83002623  .00001568  00000-0  13923-3 0  9990,2 56814  69.9995 339.1806 0002661 275.6587  84.4269 14.98316646 46313,6950.234,96.108,573.949,570.25,0.0
56814.0,STARLINK-6059,PAYLOAD,2024-03-27 23:07:30,14.98318371,0.0002918,69.9998,338.8455,272.6301,87.4524,2.9062e-05,2.54e-06,0.0,0 STARLINK-6059,1 56814U 23078AZ  24087.96354885  .00000254  00000-0  29062-4 0  9997,2 56814  69.9998 338.8455 0002918 272.6301  87.4524 14.98318371 46075,6950.229,96.108,574.122,570.066,0.0
56814.0,STARLINK-6059,PAYLOAD,2024-03-28 10:20:26,14.98329402,0.0002868,70.0003,337.6692,272.3957,87.6874,-1.8331e-05,-3.12e-06,0.0,0 STARLINK-6059,1 56814U 23078AZ  24088.43086500 -.00000312  00000-0 -18331-4 0  9990,2 56814  70.0003 337.6692 0002868 272.3957  87.6874 14.98329402 46407,6950.195,96.107,574.053,570.066,0.0
56814.0,STARLINK-6059,PAYLOAD,2024-03-28 23:09:30,14.98337028,0.000291,70.0001,336.3217,271.6264,88.4562,-5.3048e-05,-7.26e-06,0.0,0 STARLINK-6059,1 56814U 23078AZ  24088.96494004 -.00000726  00000-0 -53048-4 0  9993,2 56814  70.0001 336.3217 0002910 271.6264  88.4562 14.98337028 46221,6950.171,96.107,574.059,570.014,0.0
56814.0,STARLINK-6059,PAYLOAD,2024-03-29 02:21:46,14.9834028,0.0002856,70.0003,335.985,271.3845,88.6987,-1.015e-05,-2.14e-06,0.0,0 STARLINK-6059,1 56814U 23078AZ  24089.09845633 -.00000214  00000-0 -10150-4 0  9995,2 56814  70.0003 335.9850 0002856 271.3845  88.6987 14.98340280 46500,6950.161,96.106,574.011,570.041,0.0
56814.0,STARLINK-6059,PAYLOAD,2024-03-29 23:11:32,14.9831579,0.0002749,70.0011,333.797,274.9238,85.1607,0.00026501,3.069e-05,0.0,0 STARLINK-6059,1 56814U 23078AZ  24089.96634371  .00003069  00000-0  26501-3 0  9991,2 56814  70.0011 333.7970 0002749 274.9238  85.1607 14.98315790 46378,6950.237,96.108,574.012,570.191,0.0
56814.0,STARLINK-6059,PAYLOAD,2024-03-30 02:23:48,14.9832229,0.000275,70.001,333.4607,272.0856,87.9988,0.00011959,1.334e-05,0.0,0 STARLINK-6059,1 56814U 23078AZ  24090.09986410  .00001334  00000-0  11959-3 0  9995,2 56814  70.0010 333.4607 0002750 272.0856  87.9988 14.98322290 46654,6950.217,96.107,573.993,570.17,0.0
56814.0,STARLINK-6059,PAYLOAD,2024-03-30 21:37:26,14.98316887,0.0002773,70.0014,331.4401,273.7121,86.3721,-0.00014728,-1.849e-05,0.0,0 STARLINK-6059,1 56814U 23078AZ  24090.90100072 -.00001849  00000-0 -14728-3 0  9997,2 56814  70.0014 331.4401 0002773 273.7121  86.3721 14.98316887 46514,6950.233,96.108,574.026,570.171,0.0
56814.0,STARLINK-6059,PAYLOAD,2024-03-31 02:25:50,14.98319593,0.0002954,70.0006,330.9363,269.9016,90.1805,-0.00016349,-2.043e-05,0.0,0 STARLINK-6059,1 56814U 23078AZ  24091.10127899 -.00002043  00000-0 -16349-3 0  9994,2 56814  70.0006 330.9363 0002954 269.9016  90.1805 14.98319593 46802,6950.225,96.108,574.143,570.037,0.0
56814.0,STARLINK-6059,PAYLOAD,2024-03-31 08:50:22,14.98325792,0.0003058,70.0001,330.2628,270.8033,89.2776,-0.00011546,-1.47e-05,0.0,0 STARLINK-6059,1 56814U 23078AZ  24091.36831490 -.00001470  00000-0 -11546-3 0  9998,2 56814  70.0001 330.2628 0003058 270.8033  89.2776 14.98325792 46848,6950.206,96.107,574.196,569.946,0.0
56814.0,STARLINK-6059,PAYLOAD,2024-03-31 21:39:26,14.98332833,0.000343,69.9994,328.9159,270.9345,89.1421,-9.1505e-06,-2.02e-06,0.0,0 STARLINK-6059,1 56814U 23078AZ  24091.90238926 -.00000202  00000-0 -91505-5 0  9990,2 56814  69.9994 328.9159 0003430 270.9345  89.1421 14.98332833 46929,6950.184,96.107,574.433,569.665,0.0
56814.0,STARLINK-6059,PAYLOAD,2024-04-01 08:52:22,14.98338089,0.0003359,69.9994,327.7368,272.6152,87.4622,5.2034e-05,5.28e-06,0.0,0 STARLINK-6059,1 56814U 23078AZ  24092.36970196  .00000528  00000-0  52034-4 0  9995,2 56814  69.9994 327.7368 0003359 272.6152  87.4622 14.98338089 46993,6950.168,96.106,574.367,569.698,0.0
56814.0,STARLINK-6059,PAYLOAD,2024-04-01 15:16:54,14.98331776,0.0003427,69.999,327.0642,270.8062,89.2704,0.00015684,1.779e-05,0.0,0 STARLINK-6059,1 56814U 23078AZ  24092.63674533  .00001779  00000-0  15684-3 0  9999,2 56814  69.9990 327.0642 0003427 270.8062  89.2704 14.98331776 46776,6950.187,96.107,574.434,569.671,0.0
56814.0,STARLINK-6059,PAYLOAD,2024-04-02 08:54:23,14.98330066,0.0003024,69.9999,325.2122,270.2291,89.8522,0.00011389,1.266e-05,0.0,0 STARLINK-6059,1 56814U 23078AZ  24093.37110538  .00001266  00000-0  11389-3 0  9990,2 56814  69.9999 325.2122 0003024 270.2291  89.8522 14.98330066 47146,6950.193,96.107,574.159,569.956,0.0
56814.0,STARLINK-6059,PAYLOAD,2024-04-02 21:43:27,14.98336115,0.0003062,69.9996,323.8645,266.5599,93.5209,-8.4812e-06,-1.94e-06,0.0,0 STARLINK-6059,1 56814U 23078AZ  24093.90518269 -.00000194  00000-0 -84812-5 0  9996,2 56814  69.9996 323.8645 0003062 266.5599  93.5209 14.98336115 46962,6950.174,96.107,574.167,569.911,0.0
56814.0,STARLINK-6059,PAYLOAD,2024-04-03 08:56:24,14.98336204,0.0003131,69.9996,322.6861,266.362,93.7181,-3.764e-05,-5.42e-06,0.0,0 STARLINK-6059,1 56814U 23078AZ  24094.37250147 -.00000542  00000-0 -37640-4 0  9999,2 56814  69.9996 322.6861 0003131 266.3620  93.7181 14.98336204 47296,6950.174,96.107,574.215,569.863,0.0
56814.0,STARLINK-6059,PAYLOAD,2024-04-03 21:45:28,14.98339114,0.0003189,69.9992,321.3403,268.0546,92.0248,-7.3676e-05,-9.72e-06,0.0,0 STARLINK-6059,1 56814U 23078AZ  24094.90657765 -.00000972  00000-0 -73676-4 0  9991,2 56814  69.9992 321.3403 0003189 268.0546  92.0248 14.98339114 47119,6950.165,96.106,574.246,569.813,0.0
56814.0,STARLINK-6059,PAYLOAD,2024-04-04 08:58:24,14.98339195,0.0003149,69.999,320.1619,267.8486,92.2312,-8.2973e-05,-1.083e-05,0.0,0 STARLINK-6059,1 56814U 23078AZ  24095.37389526 -.00001083  00000-0 -82973-4 0  9994,2 56814  69.9990 320.1619 0003149 267.8486  92.2312 14.98339195 47448,6950.164,96.106,574.218,569.841,0.0
56814.0,STARLINK-6059,PAYLOAD,2024-04-04 21:47:28,14.98337288,0.0003221,69.9989,318.8153,267.6525,92.4265,3.3703e-05,3.09e-06,0.0,0 STARLINK-6059,1 56814U 23078AZ  24095.90797144  .00000309  00000-0  33703-4 0  9997,2 56814  69.9989 318.8153 0003221 267.6525  92.4265 14.98337288 47266,6950.17,96.107,574.274,569.797,0.0
56814.0,STARLINK-6059,PAYLOAD,2024-04-05 13:48:49,14.98331314,0.0003057,69.999,317.1317,268.529,91.5519,-2.154e-05,-3.5e-06,0.0,0 STARLINK-6059,1 56814U 23078AZ  24096.57557469 -.00000350  00000-0 -21540-4 0  9999,2 56814  69.9990 317.1317 0003057 268.5290  91.5519 14.98331314 47365,6950.189,96.107,574.179,569.929,0.0
56814.0,STARLINK-6059,PAYLOAD,2024-04-05 20:13:21,14.9833022,0.0003056,69.999,316.4584,268.5059,91.575,-3.1816e-05,-4.73e-06,0.0,0 STARLINK-6059,1 56814U 23078AZ  24096.84261541 -.00000473  00000-0 -31816-4 0  9995,2 56814  69.9990 316.4584 0003056 268.5059  91.5750 14.98330220 47660,6950.192,96.107,574.181,569.933,0.0
56814.0,STARLINK-6059,PAYLOAD,2024-04-05 21:49:29,14.98330777,0.0003043,69.9989,316.29,268.5518,91.5292,-2.0607e-05,-3.39e-06,0.0,0 STARLINK-6059,1 56814U 23078AZ  24096.90937467 -.00000339  00000-0 -20607-4 0  9996,2 56814  69.9989 316.2900 0003043 268.5518  91.5292 14.98330777 47415,6950.19,96.107,574.17,569.941,0.0
